{"type":"FeatureCollection","features":[{"type":"Feature","properties":{"name":"Batticaloa","code":"BC","lat":7.85079,"lon":81.4613,"province":"Eastern"},"geometry":{"type":"MultiPolygon","coordinates":[[[[81.80709,7.49065],[81.76967,7.49607],[81.76967,7.59324],[81.70325,7.69872],[81.71699,7.72762],[81.75173,7.65465],[81.80785,7.51088],[81.80709,7.49065]]],[[[81.19132,7.73845],[81.18559,7.89306],[81.21728,7.93749],[81.29554,7.93749],[81.26881,8.01119],[81.26958,8.20625],[81.28141,8.26441],[81.40166,8.17446],[81.39097,8.10402],[81.36234,8.19289],[81.35318,8.1434],[81.37761,8.10655],[81.41426,8.09535],[81.43526,8.10222],[81.47229,8.02816],[81.50054,8.01408],[81.52879,7.99999],[81.52879,7.95881],[81.56582,7.91799],[81.5452,7.88981],[81.57956,7.83201],[81.62766,7.79806],[81.68798,7.73123],[81.66736,7.70486],[81.61659,7.75399],[81.57345,7.74821],[81.59101,7.71895],[81.63339,7.72328],[81.67767,7.66837],[81.68225,7.63839],[81.6918,7.64345],[81.73455,7.61419],[81.74715,7.54014],[81.73837,7.50473],[81.75135,7.4603],[81.64369,7.40142],[81.63262,7.47475],[81.62384,7.52424],[81.52879,7.50401],[81.44098,7.53147],[81.39594,7.58204],[81.40777,7.64128],[81.31844,7.67668],[81.25392,7.73484],[81.19132,7.73845]]]]}},{"type":"Feature","properties":{"name":"Mannar","code":"MB","lat":8.84371,"lon":80.0854,"province":"Northern"},"geometry":{"type":"MultiPolygon","coordinates":[[[[79.75745,9.0584],[79.74562,9.04323],[79.77654,8.99338],[79.76089,8.98038],[79.71355,9.01722],[79.62727,9.07213],[79.56657,9.10428],[79.62727,9.10862],[79.71469,9.08188],[79.75745,9.0584]]],[[[80.23961,8.96232],[80.28465,8.92511],[80.29534,8.85142],[80.17891,8.82505],[80.11134,8.81349],[80.0682,8.77736],[80.08919,8.73149],[80.02621,8.65779],[79.92733,8.67622],[79.93344,8.52414],[79.85938,8.5552],[79.78837,8.57471],[79.82846,8.74305],[79.80746,8.88826],[79.79219,8.94245],[79.88687,9.00458],[79.95176,9.07972],[79.99299,9.19748],[80.04148,9.21699],[80.085,9.20759],[80.11095,9.14546],[80.10905,9.10139],[80.0869,9.04973],[80.07927,8.98977],[80.23961,8.96232]]]]}},{"type":"Feature","properties":{"name":"Jaffna","code":"JA","lat":9.50669,"lon":79.6933,"province":"Northern"},"geometry":{"type":"MultiPolygon","coordinates":[[[[79.58184,9.49152],[79.53069,9.49803],[79.52,9.55185],[79.54176,9.54174],[79.59902,9.5067],[79.58184,9.49152]]],[[[79.70057,9.60603],[79.71546,9.61976],[79.73607,9.5775],[79.68874,9.57786],[79.68339,9.6241],[79.70057,9.60603]]],[[[79.78074,9.68551],[79.8128,9.6613],[79.85938,9.6306],[79.80555,9.63602],[79.75669,9.63529],[79.71508,9.70646],[79.73645,9.76317],[79.76547,9.73066],[79.78074,9.68551]]],[[[80.361,9.5439],[80.34993,9.5887],[80.21937,9.67864],[80.10523,9.78087],[80.02888,9.80544],[80.04911,9.82964],[80.15715,9.82278],[80.17662,9.77618],[80.37551,9.58689],[80.53508,9.45468],[80.52936,9.45107],[80.52936,9.45107],[80.4049,9.51573],[80.36291,9.53379],[80.361,9.5439]]],[[[80.52974,9.45107],[80.52936,9.45107],[80.52936,9.45107],[80.52974,9.45107]]],[[[80.18883,9.68659],[80.15218,9.62121],[80.06782,9.63024],[80.07851,9.58978],[80.00445,9.6418],[80.02544,9.60965],[79.92428,9.65119],[79.83991,9.69959],[79.81662,9.73427],[79.8109,9.78593],[79.87121,9.83],[80.0117,9.82567],[80.06285,9.77365],[80.10523,9.76715],[80.18883,9.68659]]]]}},{"type":"Feature","properties":{"name":"Kilinochchi","code":"KL","lat":9.38429,"lon":80.3341,"province":"Northern"},"geometry":{"type":"MultiPolygon","coordinates":[[[[79.86625,9.28598],[79.86472,9.30982],[79.86625,9.28598]]],[[[80.52974,9.45107],[80.49958,9.41314],[80.47553,9.37954],[80.42705,9.35895],[80.32054,9.34992],[80.27473,9.3044],[80.13653,9.30007],[80.11172,9.23866],[80.04148,9.21699],[80.00406,9.23866],[79.96322,9.32788],[79.94336,9.36003],[79.9739,9.42036],[80.05369,9.46443],[80.06782,9.51175],[79.95405,9.584],[79.97238,9.60134],[80.06782,9.55438],[80.16898,9.50959],[80.16249,9.49261],[80.18425,9.45793],[80.33161,9.50525],[80.4133,9.48827],[80.52936,9.45107],[80.52974,9.45107]]],[[[80.36291,9.53379],[80.32016,9.5327],[80.1957,9.597],[80.17433,9.65805],[80.23884,9.63493],[80.34764,9.58219],[80.36291,9.53379]]]]}},{"type":"Feature","properties":{"name":"Kandy","code":"KY","lat":7.30186,"lon":80.718,"province":"Central"},"geometry":{"type":"Polygon","coordinates":[[[80.47667,7.45561],[80.56562,7.38769],[80.62709,7.40901],[80.63014,7.46139],[80.6603,7.46428],[80.73016,7.43791],[80.80727,7.46355],[80.83743,7.45669],[80.88515,7.48776],[80.92829,7.33279],[80.94967,7.22767],[80.88477,7.18902],[80.79544,7.19118],[80.73245,7.2302],[80.67862,7.26957],[80.67022,7.16879],[80.56333,7.0969],[80.51103,7.07234],[80.44881,7.05861],[80.48431,7.02538],[80.49996,6.96144],[80.44613,6.95602],[80.36826,7.02502],[80.35299,7.10918],[80.40147,7.12508],[80.44155,7.14531],[80.42819,7.19985],[80.4175,7.24717],[80.38353,7.28655],[80.32474,7.35518],[80.37475,7.4007],[80.40605,7.3895],[80.42437,7.41009],[80.46637,7.42093],[80.47667,7.45561]]]}},{"type":"Feature","properties":{"name":"Matale","code":"MT","lat":7.60919,"lon":80.7391,"province":"Central"},"geometry":{"type":"Polygon","coordinates":[[[80.91874,7.48451],[80.86377,7.48487],[80.82483,7.4715],[80.76375,7.46392],[80.7,7.43357],[80.64465,7.47006],[80.62365,7.44585],[80.60456,7.38553],[80.49843,7.42743],[80.48545,7.48559],[80.46255,7.56036],[80.48469,7.61455],[80.45644,7.69691],[80.4217,7.77313],[80.40643,7.81431],[80.46446,7.84249],[80.51294,7.85513],[80.54768,7.89776],[80.57708,7.96025],[80.63625,7.99421],[80.70229,7.98807],[80.7168,7.96133],[80.78093,7.96242],[80.73627,7.86055],[80.68969,7.79914],[80.69695,7.71064],[80.70534,7.67704],[80.75994,7.68174],[80.80613,7.67849],[80.86988,7.71028],[80.92409,7.70305],[80.92371,7.61347],[80.91874,7.48451]]]}},{"type":"Feature","properties":{"name":"Nuwara Eliya","code":"NW","lat":6.93625,"lon":80.6991,"province":"Central"},"geometry":{"type":"Polygon","coordinates":[[[80.36826,7.02502],[80.44613,6.95602],[80.49996,6.96144],[80.48431,7.02538],[80.44881,7.05861],[80.51103,7.07234],[80.56333,7.0969],[80.67022,7.16879],[80.67862,7.26957],[80.73245,7.2302],[80.79544,7.19118],[80.88477,7.18902],[80.89202,7.12833],[80.8882,7.10015],[80.87675,7.05211],[80.83858,6.98203],[80.76261,6.9506],[80.74314,6.91556],[80.70534,6.89967],[80.76184,6.84115],[80.76566,6.80683],[80.73474,6.78768],[80.64159,6.75409],[80.55799,6.74976],[80.44499,6.7689],[80.39727,6.7866],[80.40261,6.82778],[80.4049,6.87763],[80.34955,6.904],[80.34802,6.97047],[80.36406,7.00695],[80.36826,7.02502]]]}},{"type":"Feature","properties":{"name":"Ampara","code":"AP","lat":7.1632,"lon":81.7242,"province":"Eastern"},"geometry":{"type":"Polygon","coordinates":[[[81.75135,7.4603],[81.77616,7.46464],[81.79487,7.43791],[81.8235,7.45705],[81.84221,7.41154],[81.86473,7.09004],[81.88,7.01779],[81.82541,6.81839],[81.80289,6.73422],[81.76357,6.66017],[81.75937,6.60671],[81.65706,6.5164],[81.61354,6.53807],[81.60857,6.94302],[81.583,7.01851],[81.55856,7.07487],[81.49252,7.09582],[81.4784,7.17962],[81.49481,7.24681],[81.47687,7.29269],[81.45053,7.35518],[81.43984,7.42165],[81.44175,7.44947],[81.36998,7.43213],[81.33333,7.40756],[81.32379,7.34543],[81.27607,7.33532],[81.28179,7.25946],[81.223,7.27463],[81.19781,7.33134],[81.16001,7.34615],[81.13367,7.43863],[81.15352,7.5069],[81.10275,7.56651],[81.02831,7.51955],[80.95959,7.547],[80.92371,7.61347],[80.92409,7.70305],[81.00349,7.72653],[81.07335,7.68318],[81.14932,7.65501],[81.18979,7.69222],[81.19132,7.73845],[81.25392,7.73484],[81.31844,7.67668],[81.40777,7.64128],[81.39594,7.58204],[81.44098,7.53147],[81.52879,7.50401],[81.62384,7.52424],[81.63262,7.47475],[81.64369,7.40142],[81.75135,7.4603]]]}},{"type":"Feature","properties":{"name":"Polonnaruwa","code":"PR","lat":7.99997,"lon":81.048,"province":"North Central"},"geometry":{"type":"Polygon","coordinates":[[[81.19132,7.73845],[81.18979,7.69222],[81.14932,7.65501],[81.07335,7.68318],[81.00349,7.72653],[80.86988,7.71028],[80.80613,7.67849],[80.75994,7.68174],[80.70534,7.67704],[80.69695,7.71064],[80.68969,7.79914],[80.73627,7.86055],[80.78093,7.96242],[80.7168,7.96133],[80.70229,7.98807],[80.67977,8.03864],[80.67939,8.08163],[80.68817,8.15604],[80.71222,8.23587],[80.76948,8.28175],[80.8298,8.28934],[80.85576,8.33774],[80.88401,8.3251],[80.9218,8.28608],[80.97944,8.27778],[81.07832,8.25935],[81.15772,8.17482],[81.14894,8.15062],[81.1959,8.19867],[81.23407,8.25827],[81.26958,8.20625],[81.26881,8.01119],[81.29554,7.93749],[81.21728,7.93749],[81.18559,7.89306],[81.19132,7.73845]]]}},{"type":"Feature","properties":{"name":"Trincomalee","code":"TC","lat":8.56202,"lon":81.0848,"province":"Eastern"},"geometry":{"type":"Polygon","coordinates":[[[81.26385,8.25863],[81.20239,8.22504],[81.17566,8.1564],[81.13978,8.15496],[81.15276,8.21962],[81.05961,8.25935],[80.93478,8.27344],[80.91722,8.30704],[80.87179,8.34244],[80.88553,8.43961],[80.92218,8.47573],[80.89355,8.51149],[80.85079,8.58374],[80.82598,8.62781],[80.84163,8.68416],[80.81338,8.78856],[80.8088,8.87417],[80.70496,8.91969],[80.67977,8.92547],[80.73016,8.95798],[80.85423,8.9923],[80.86721,8.96809],[80.86263,8.93486],[80.89508,8.94895],[80.95119,8.93992],[80.99891,8.87165],[81.05618,8.80265],[81.09397,8.77989],[81.12184,8.7015],[81.14398,8.70837],[81.18025,8.65346],[81.15161,8.61228],[81.19628,8.57218],[81.17337,8.54364],[81.16001,8.57471],[81.16612,8.5245],[81.12222,8.53245],[81.08595,8.52956],[81.09359,8.50535],[81.16078,8.47429],[81.23255,8.46887],[81.23827,8.5021],[81.30164,8.50969],[81.32951,8.44394],[81.34707,8.36519],[81.31959,8.4006],[81.31271,8.36411],[81.35776,8.34063],[81.28141,8.26441],[81.26385,8.25863]]]}},{"type":"Feature","properties":{"name":"Anuradhapura","code":"AD","lat":8.29198,"lon":80.4711,"province":"North Central"},"geometry":{"type":"Polygon","coordinates":[[[80.85576,8.33774],[80.8298,8.28934],[80.76948,8.28175],[80.71222,8.23587],[80.68817,8.15604],[80.67939,8.08163],[80.67977,8.03864],[80.63625,7.99421],[80.57708,7.96025],[80.54768,7.89776],[80.51294,7.85513],[80.46446,7.84249],[80.40643,7.81431],[80.38391,7.87356],[80.35719,7.95122],[80.32168,8.01516],[80.30756,8.05273],[80.26862,8.06356],[80.16478,8.11956],[80.1079,8.14304],[79.98803,8.19722],[79.93917,8.22287],[79.88038,8.22865],[79.84793,8.34749],[79.84411,8.4006],[79.86816,8.42444],[79.92046,8.48801],[79.93344,8.52414],[79.92733,8.67622],[80.02621,8.65779],[80.12928,8.65021],[80.17165,8.61011],[80.23693,8.54798],[80.27205,8.58338],[80.33313,8.6773],[80.403,8.66935],[80.49118,8.71234],[80.56715,8.79217],[80.5389,8.84166],[80.50951,8.87273],[80.61869,8.89549],[80.70496,8.91969],[80.8088,8.87417],[80.81338,8.78856],[80.84163,8.68416],[80.82598,8.62781],[80.85079,8.58374],[80.89355,8.51149],[80.92218,8.47573],[80.88553,8.43961],[80.85576,8.33774]]]}},{"type":"Feature","properties":{"name":"Vavuniya","code":"VA","lat":8.89756,"lon":80.479,"province":"Northern"},"geometry":{"type":"Polygon","coordinates":[[[80.68855,8.93992],[80.67519,8.90813],[80.58776,8.87526],[80.51141,8.85069],[80.55837,8.81818],[80.54195,8.77339],[80.43659,8.66972],[80.36558,8.69139],[80.29152,8.62637],[80.25335,8.57543],[80.19341,8.56279],[80.13997,8.62203],[80.1289,8.68308],[80.064,8.74955],[80.09568,8.77989],[80.14073,8.82902],[80.23846,8.83191],[80.30069,8.88646],[80.26824,8.94967],[80.28885,8.99121],[80.33695,9.0407],[80.30718,9.10464],[80.38582,9.1209],[80.42819,9.08225],[80.49271,9.11837],[80.53126,9.12957],[80.56791,9.0855],[80.60838,9.06202],[80.62861,9.04793],[80.69542,9.02409],[80.68855,8.93992]]]}},{"type":"Feature","properties":{"name":"Mullaitivu","code":"MP","lat":9.24043,"lon":80.5667,"province":"Northern"},"geometry":{"type":"Polygon","coordinates":[[[80.68855,8.93992],[80.69542,9.02409],[80.62861,9.04793],[80.60838,9.06202],[80.56791,9.0855],[80.53126,9.12957],[80.49271,9.11837],[80.42819,9.08225],[80.38582,9.1209],[80.30718,9.10464],[80.33695,9.0407],[80.28885,8.99121],[80.06553,8.95401],[80.06934,9.00566],[80.10981,9.05732],[80.11401,9.13101],[80.09148,9.17472],[80.08385,9.24191],[80.10905,9.26647],[80.21746,9.30874],[80.30259,9.30657],[80.40949,9.34956],[80.44193,9.4041],[80.49958,9.36726],[80.52248,9.42939],[80.53508,9.45468],[80.66602,9.36437],[80.72329,9.29899],[80.69122,9.30982],[80.66335,9.30296],[80.73932,9.24372],[80.72825,9.27587],[80.76108,9.24372],[80.76681,9.15991],[80.80155,9.13029],[80.82636,9.12017],[80.86721,9.03673],[80.87675,9.00386],[80.80422,9.04504],[80.77864,8.96412],[80.68855,8.93992]]]}},{"type":"Feature","properties":{"name":"Kurunegala","code":"KG","lat":7.71298,"lon":80.2369,"province":"North Western"},"geometry":{"type":"Polygon","coordinates":[[[80.40643,7.81431],[80.4217,7.77313],[80.45644,7.69691],[80.48469,7.61455],[80.46255,7.56036],[80.48545,7.48559],[80.45148,7.4473],[80.43964,7.41804],[80.42437,7.38842],[80.38963,7.4007],[80.36558,7.35807],[80.29954,7.3895],[80.25106,7.38408],[80.23731,7.32303],[80.14951,7.30064],[80.0827,7.25476],[80.03804,7.29594],[79.98994,7.31798],[79.93306,7.29233],[79.87847,7.31075],[79.81548,7.27282],[79.77463,7.53002],[79.78608,7.62683],[79.84144,7.68355],[79.83533,7.72075],[79.88343,7.73954],[79.87694,7.78758],[79.9197,7.84971],[79.95024,7.88186],[79.99108,7.9281],[80.01933,7.93822],[80.0201,7.97037],[80.03422,8.04334],[80.01399,8.08054],[79.98918,8.15785],[80.01055,8.1853],[80.14913,8.13039],[80.21937,8.10402],[80.28771,8.05237],[80.32359,8.04045],[80.3255,7.95808],[80.36597,7.93713],[80.37971,7.83852],[80.40643,7.81431]]]}},{"type":"Feature","properties":{"name":"Puttalam","code":"PX","lat":7.94944,"lon":79.9111,"province":"North Western"},"geometry":{"type":"Polygon","coordinates":[[[79.91435,8.52956],[79.90099,8.44972],[79.86205,8.40818],[79.83227,8.37567],[79.87389,8.24635],[79.92008,8.23623],[79.96054,8.22359],[79.98918,8.15785],[80.01399,8.08054],[80.03422,8.04334],[80.0201,7.97037],[80.01933,7.93822],[79.99108,7.9281],[79.95024,7.88186],[79.9197,7.84971],[79.87694,7.78758],[79.88343,7.73954],[79.83533,7.72075],[79.84144,7.68355],[79.78608,7.62683],[79.77463,7.53002],[79.81548,7.27282],[79.7815,7.27029],[79.7208,7.27318],[79.65056,7.58926],[79.65934,7.60227],[79.65514,7.68824],[79.62536,7.86922],[79.60246,7.9458],[79.55894,8.10005],[79.57001,8.14376],[79.55932,8.22106],[79.60513,8.27453],[79.64598,8.35219],[79.60971,8.28319],[79.6456,8.26188],[79.61124,8.20806],[79.59139,8.11233],[79.61697,8.05598],[79.62956,7.99132],[79.70362,8.00396],[79.66392,8.0632],[79.69675,8.13798],[79.68263,8.21456],[79.68034,8.25141],[79.70935,8.3428],[79.73836,8.46381],[79.74714,8.54075],[79.82808,8.55809],[79.91435,8.52956]]]}},{"type":"Feature","properties":{"name":"Ratnapura","code":"RN","lat":6.57933,"lon":80.5623,"province":"Sabaragamuwa"},"geometry":{"type":"Polygon","coordinates":[[[80.40261,6.82778],[80.39727,6.7866],[80.44499,6.7689],[80.55799,6.74976],[80.64159,6.75409],[80.73474,6.78768],[80.75345,6.75734],[80.78628,6.73711],[80.74734,6.70388],[80.76986,6.66161],[80.81949,6.66703],[80.86072,6.68293],[80.83209,6.63235],[80.80269,6.58828],[80.75612,6.48931],[80.76719,6.39502],[80.83361,6.33181],[80.87141,6.26967],[80.87599,6.22633],[80.78628,6.26606],[80.72558,6.26281],[80.587,6.30038],[80.57898,6.32458],[80.52363,6.34698],[80.51523,6.39141],[80.44308,6.36938],[80.39269,6.37443],[80.3423,6.38924],[80.2816,6.42067],[80.19838,6.54277],[80.20868,6.56553],[80.16974,6.61357],[80.13691,6.65872],[80.08767,6.727],[80.07087,6.78913],[80.09072,6.82959],[80.07469,6.88124],[80.1163,6.92134],[80.20792,6.8574],[80.24686,6.83356],[80.30832,6.85126],[80.40261,6.82778]]]}},{"type":"Feature","properties":{"name":"Galle","code":"GL","lat":6.19513,"lon":80.2387,"province":"Southern"},"geometry":{"type":"Polygon","coordinates":[[[80.2816,6.42067],[80.3423,6.38924],[80.39269,6.37443],[80.37971,6.35601],[80.39422,6.30905],[80.35528,6.28774],[80.27816,6.32205],[80.30947,6.29063],[80.34001,6.23175],[80.28389,6.21657],[80.28274,6.14794],[80.34153,6.08725],[80.29572,6.04932],[80.31977,6.01789],[80.2942,5.99911],[80.28427,5.95721],[80.2377,5.96407],[80.17013,5.99658],[80.09988,6.02729],[80.0724,6.03487],[79.95902,6.16347],[79.90863,6.28701],[79.88916,6.35637],[79.85747,6.4362],[79.89412,6.43042],[79.94642,6.39755],[80.02124,6.35998],[80.09645,6.36685],[80.19265,6.31953],[80.18692,6.36143],[80.24342,6.41236],[80.2816,6.42067]]]}},{"type":"Feature","properties":{"name":"Hambantota","code":"HB","lat":6.2704,"lon":81.1619,"province":"Southern"},"geometry":{"type":"Polygon","coordinates":[[[81.69218,6.50592],[81.62652,6.42609],[81.5181,6.36576],[81.28179,6.1996],[81.152,6.17214],[81.13024,6.15047],[80.94623,6.09159],[80.834,6.06413],[80.79086,6.03307],[80.73436,6.02837],[80.61716,5.98358],[80.61296,6.01392],[80.57631,6.04463],[80.59922,6.097],[80.58853,6.11471],[80.56753,6.14071],[80.54348,6.17106],[80.53814,6.22669],[80.57173,6.27148],[80.6477,6.28918],[80.74581,6.25956],[80.81491,6.24078],[80.88133,6.24403],[80.85194,6.2899],[80.93478,6.32892],[80.94776,6.36793],[80.98059,6.39141],[81.00197,6.40767],[81.06496,6.41561],[81.0913,6.39105],[81.13634,6.39827],[81.19895,6.33759],[81.28561,6.37624],[81.40052,6.41308],[81.44366,6.4279],[81.45244,6.45824],[81.46732,6.50448],[81.53413,6.54891],[81.58185,6.57456],[81.63911,6.53554],[81.69218,6.50592]]]}},{"type":"Feature","properties":{"name":"Matara","code":"MH","lat":6.16548,"lon":80.5542,"province":"Southern"},"geometry":{"type":"Polygon","coordinates":[[[80.587,6.30038],[80.5786,6.25559],[80.52516,6.18334],[80.5786,6.16022],[80.57097,6.12374],[80.61258,6.11434],[80.61067,6.05871],[80.57898,6.02873],[80.60494,6.00164],[80.65037,5.96877],[80.57249,5.95107],[80.51752,5.92],[80.44842,5.93734],[80.3694,5.93373],[80.32894,5.95432],[80.28198,5.9796],[80.31328,6.00561],[80.29267,6.02945],[80.31023,6.0551],[80.28962,6.12807],[80.29992,6.18804],[80.3213,6.21043],[80.33199,6.26064],[80.28847,6.30327],[80.31252,6.32133],[80.38811,6.28051],[80.36558,6.34228],[80.40147,6.36215],[80.45071,6.38563],[80.5305,6.36504],[80.56791,6.3477],[80.59273,6.31519],[80.587,6.30038]]]}},{"type":"Feature","properties":{"name":"Badulla","code":"BD","lat":7.05184,"lon":81.0255,"province":"Uva"},"geometry":{"type":"Polygon","coordinates":[[[80.86072,6.68293],[80.81949,6.66703],[80.76986,6.66161],[80.74734,6.70388],[80.78628,6.73711],[80.75345,6.75734],[80.73474,6.78768],[80.76566,6.80683],[80.76184,6.84115],[80.70534,6.89967],[80.74314,6.91556],[80.76261,6.9506],[80.83858,6.98203],[80.87675,7.05211],[80.8882,7.10015],[80.89202,7.12833],[80.88477,7.18902],[80.94967,7.22767],[80.92829,7.33279],[80.91378,7.56651],[80.9428,7.60155],[80.98555,7.50618],[81.05083,7.53905],[81.14971,7.55711],[81.14245,7.45814],[81.14818,7.36963],[81.17566,7.33134],[81.21918,7.29269],[81.18177,7.26524],[81.17376,7.2255],[81.11764,7.16843],[81.08519,7.1854],[81.06954,7.14747],[81.12222,7.08354],[81.18635,7.06584],[81.18597,6.97408],[81.16498,6.92243],[81.10542,6.88702],[81.08137,6.83392],[81.04167,6.80828],[81.0054,6.76276],[81.00044,6.73169],[81.02029,6.7093],[81.00273,6.6562],[81.02831,6.6049],[81.00311,6.57347],[80.96532,6.56372],[80.93936,6.56553],[80.92027,6.6049],[80.8863,6.65294],[80.86072,6.68293]]]}},{"type":"Feature","properties":{"name":"Moneragala","code":"MJ","lat":6.7224,"lon":81.3431,"province":"Uva"},"geometry":{"type":"Polygon","coordinates":[[[81.58185,6.57456],[81.53413,6.54891],[81.46732,6.50448],[81.45244,6.45824],[81.44366,6.4279],[81.40052,6.41308],[81.28561,6.37624],[81.19895,6.33759],[81.13634,6.39827],[81.0913,6.39105],[81.06496,6.41561],[81.00197,6.40767],[80.98059,6.39141],[80.94776,6.36793],[80.93478,6.32892],[80.85194,6.2899],[80.79391,6.35456],[80.76604,6.45716],[80.79238,6.54457],[80.813,6.61032],[80.84316,6.65836],[80.87332,6.68257],[80.90309,6.64716],[80.93478,6.59731],[80.96112,6.53735],[80.98021,6.58575],[81.00617,6.59731],[81.01266,6.62838],[81.00464,6.68618],[81.01915,6.727],[80.99624,6.7447],[81.00578,6.80539],[81.05083,6.82525],[81.05541,6.86788],[81.14054,6.92387],[81.17299,6.95277],[81.19475,7.01996],[81.16116,7.09329],[81.09931,7.11641],[81.07297,7.1677],[81.10275,7.1836],[81.1352,7.17565],[81.18177,7.24465],[81.223,7.27463],[81.28179,7.25946],[81.27607,7.33532],[81.32379,7.34543],[81.33333,7.40756],[81.36998,7.43213],[81.44175,7.44947],[81.43984,7.42165],[81.45053,7.35518],[81.47687,7.29269],[81.49481,7.24681],[81.4784,7.17962],[81.49252,7.09582],[81.55856,7.07487],[81.583,7.01851],[81.60857,6.94302],[81.58185,6.57456]]]}},{"type":"Feature","properties":{"name":"Kegalle","code":"KE","lat":7.08797,"lon":80.3478,"province":"Sabaragamuwa"},"geometry":{"type":"Polygon","coordinates":[[[80.32474,7.35518],[80.38353,7.28655],[80.4175,7.24717],[80.42819,7.19985],[80.44155,7.14531],[80.40147,7.12508],[80.35299,7.10918],[80.36826,7.02502],[80.33543,6.98456],[80.34039,6.93326],[80.38047,6.89461],[80.41483,6.8379],[80.36062,6.82995],[80.27931,6.85054],[80.22052,6.83898],[80.1896,6.85126],[80.09988,6.91412],[80.1121,6.94591],[80.09034,6.973],[80.07049,6.99214],[80.06018,7.06873],[80.08919,7.1081],[80.07469,7.13122],[80.03613,7.15073],[80.07125,7.19949],[80.0827,7.25476],[80.14951,7.30064],[80.23731,7.32303],[80.25106,7.38408],[80.29954,7.3895],[80.32474,7.35518]]]}},{"type":"Feature","properties":{"name":"Colombo","code":"CO","lat":6.85989,"lon":80.0349,"province":"Western"},"geometry":{"type":"Polygon","coordinates":[[[80.09988,6.91412],[80.06476,6.8556],[80.06743,6.80972],[80.00177,6.80286],[79.98803,6.77902],[79.96207,6.81333],[79.90901,6.79491],[79.81357,6.74361],[79.76318,6.75553],[79.77119,6.70821],[79.71622,6.88739],[79.77654,6.94085],[79.84716,6.93435],[79.91053,6.91954],[79.9762,6.90761],[79.99872,6.9618],[80.04835,6.9683],[80.09034,6.973],[80.1121,6.94591],[80.09988,6.91412]]]}},{"type":"Feature","properties":{"name":"Gampaha","code":"GQ","lat":7.12599,"lon":80.0106,"province":"Western"},"geometry":{"type":"Polygon","coordinates":[[[80.0827,7.25476],[80.07125,7.19949],[80.03613,7.15073],[80.07469,7.13122],[80.08919,7.1081],[80.06018,7.06873],[80.07049,6.99214],[80.04835,6.9683],[79.99872,6.9618],[79.9762,6.90761],[79.91053,6.91954],[79.84716,6.93435],[79.77654,6.94085],[79.72806,6.986],[79.68034,7.1789],[79.70171,7.16265],[79.72309,7.12074],[79.73111,7.16554],[79.70439,7.19588],[79.70171,7.23092],[79.7208,7.27318],[79.7815,7.27029],[79.81548,7.27282],[79.87847,7.31075],[79.93306,7.29233],[79.98994,7.31798],[80.03804,7.29594],[80.0827,7.25476]]]}},{"type":"Feature","properties":{"name":"Kalutara","code":"KT","lat":6.58989,"lon":80.1374,"province":"Western"},"geometry":{"type":"Polygon","coordinates":[[[80.06743,6.80972],[80.08919,6.74325],[80.10485,6.68798],[80.1434,6.62946],[80.19341,6.59334],[80.19265,6.55975],[80.24304,6.48353],[80.24342,6.41236],[80.18692,6.36143],[80.19265,6.31953],[80.09645,6.36685],[80.02124,6.35998],[79.94642,6.39755],[79.89412,6.43042],[79.85747,6.4362],[79.85289,6.47413],[79.77119,6.70821],[79.76318,6.75553],[79.81357,6.74361],[79.90901,6.79491],[79.96207,6.81333],[79.98803,6.77902],[80.00177,6.80286],[80.06743,6.80972]]]}}]}